[{"OBJECT_NAME":"STARLINK-5396","OBJECT_ID":"2022-177AZ","EPOCH":"2026-03-09T22:00:01.999584","MEAN_MOTION":15.08154697,"ECCENTRICITY":0.00025703,"INCLINATION":43.0004,"RA_OF_ASC_NODE":118.8207,"ARG_OF_PERICENTER":244.0185,"MEAN_ANOMALY":76.2139,"EPHEMERIS_TYPE":0,"CLASSIFICATION_TYPE":"U","NORAD_CAT_ID":54867,"ELEMENT_SET_NO":999,"REV_AT_EPOCH":572,"BSTAR":0.0015164479,"MEAN_MOTION_DOT":0.00023695,"MEAN_MOTION_DDOT":0},{"OBJECT_NAME":"FENGYUN 1C DEB","OBJECT_ID":"1999-025AEH","EPOCH":"2026-03-09T22:48:21.206880","MEAN_MOTION":14.8573293,"ECCENTRICITY":0.01077809,"INCLINATION":98.8499,"RA_OF_ASC_NODE":243.2798,"ARG_OF_PERICENTER":197.684,"MEAN_ANOMALY":322.9923,"EPHEMERIS_TYPE":0,"CLASSIFICATION_TYPE":"U","NORAD_CAT_ID":30418,"ELEMENT_SET_NO":999,"REV_AT_EPOCH":1886,"BSTAR":0.0011748472,"MEAN_MOTION_DOT":0.00011272,"MEAN_MOTION_DDOT":0}]
